HULIANWANG DIGUI 14J    
1 66923U 25285J   25344.21157233  .00000166  00000+0  19275-3 0  9999
2 66923  50.0075 127.5783 0005386 287.7981  72.2337 14.06054815   550
CZ-8A R/B               
1 66924U 25285K   25344.14639252  .00000093  00000+0  91739-4 0  9993
2 66924  50.0060 127.1939 0119314  97.5969 263.8518 14.30500165   554
YAOGAN-47               
1 66988U 25289A   25343.91731380  .00007778  00000+0  26831-3 0  9993
2 66988  97.5260  49.0270 0009314 269.0929  90.9244 15.30229903   118
CZ-4B R/B               
1 66989U 25289B   25343.90030358  .00048017  28370-5  24890-3 0  9990
2 66989  97.5273  49.0436 0152727  13.5900 346.9400 15.66138267   125
TJS-22                  
1 66990U 25290A   25343.43035469  .00004338  73408-6  40278-3 0  9999
2 66990  28.4275 302.9660 7302159 179.5139 182.3589  2.28111800   197
CZ-3B R/B               
1 66991U 25290B   25343.44196840  .00010315  69824-6  40065-3 0  9995
2 66991  28.4418 302.9445 7238211 178.8623 185.1180  2.37490877    18
